H1 CPF 01  gfz 2021 10 20 00  7931 tandemx   
H2 1003001  6202 36605    2021 10 20 00 59 42 2021 10 25 00 00 42   120 1 1  0 0 0
H9
10 0 59509  62622.000000  0    2740871.755   -379076.828   6297619.288
10 0 59509  62742.000000  0    1889568.833   -574971.716   6588354.716
10 0 59509  62862.000000  0    1002083.808   -745617.415   6763292.361
10 0 59509  62982.000000  0      94380.659   -887544.012   6819379.673
10 0 59509  63102.000000  0    -817176.659   -998064.889   6755639.692
10 0 59509  63222.000000  0   -1716118.255  -1075327.486   6573186.165
10 0 59509  63342.000000  0   -2586164.333  -1118344.175   6275204.496
10 0 59509  63462.000000  0   -3411518.448  -1127003.137   5866900.382
10 0 59509  63582.000000  0   -4177156.896  -1102059.847   5355416.233
10 0 59509  63702.000000  0   -4869107.802  -1045109.830   4749712.478
10 0 59509  63822.000000  0   -5474713.590   -958541.609   4060415.312
10 0 59509  63942.000000  0   -5982870.786   -845471.117   3299633.045
10 0 59509  64062.000000  0   -6384242.059   -709658.916   2480745.358
10 0 59509  64182.000000  0   -6671438.640   -555412.029   1618168.038
10 0 59509  64302.000000  0   -6839166.062   -387472.566    727093.893
10 0 59509  64422.000000  0   -6884327.242   -210896.298   -176782.583
10 0 59509  64542.000000  0   -6806081.797    -30923.597  -1077550.425
10 0 59509  64662.000000  0   -6605858.988    147153.768  -1959371.415
10 0 59509  64782.000000  0   -6287325.856    318125.781  -2806764.813
10 0 59509  64902.000000  0   -5856312.476    476994.698  -3604885.838
10 0 59509  65022.000000  0   -5320692.053    619099.907  -4339788.890
10 0 59509  65142.000000  0   -4690223.911    740233.220  -4998669.344
10 0 59509  65262.000000  0   -3976362.637    836742.156  -5570080.868
10 0 59509  65382.000000  0   -3192039.634    905619.081  -6044125.206
10 0 59509  65502.000000  0   -2351421.474    944573.929  -6412612.160
10 0 59509  65622.000000  0   -1469651.604    952090.598  -6669189.469
10 0 59509  65742.000000  0    -562577.704    927466.144  -6809441.398
10 0 59509  65862.000000  0     353528.055    870831.300  -6830954.967
10 0 59509  65982.000000  0    1262252.406    783152.777  -6733357.976
10 0 59509  66102.000000  0    2147329.050    666217.012  -6518326.982
10 0 59509  66222.000000  0    2992923.912    522595.807  -6189561.256
10 0 59509  66342.000000  0    3783914.258    355594.546  -5752725.528
10 0 59509  66462.000000  0    4506156.622    169182.330  -5215361.713
10 0 59509  66582.000000  0    5146741.583    -32093.324  -4586770.884
10 0 59509  66702.000000  0    5694231.496   -243206.831  -3877863.311
10 0 59509  66822.000000  0    6138873.592   -458768.153  -3100978.180
10 0 59509  66942.000000  0    6472785.396   -673147.574  -2269676.337
10 0 59509  67062.000000  0    6690107.914   -880608.931  -1398506.722
10 0 59509  67182.000000  0    6787120.569  -1075447.563   -502750.745
10 0 59509  67302.000000  0    6762315.059  -1252130.184    401849.623
10 0 59509  67422.000000  0    6616425.931  -1405433.052   1299375.649
10 0 59509  67542.000000  0    6352415.464  -1530575.224   2174020.421
10 0 59509  67662.000000  0    5975413.901  -1623342.601   3010377.132
10 0 59509  67782.000000  0    5492614.698  -1680199.113   3793718.438
10 0 59509  67902.000000  0    4913129.648  -1698383.988   4510261.100
10 0 59509  68022.000000  0    4247807.637  -1675990.973   5147410.715
10 0 59509  68142.000000  0    3509022.789  -1612027.901   5693983.051
10 0 59509  68262.000000  0    2710434.903  -1506456.607   6140398.151
10 0 59509  68382.000000  0    1866729.531  -1360211.879   6478842.406
10 0 59509  68502.000000  0     993343.230  -1175199.680   6703399.917
10 0 59509  68622.000000  0     106177.589   -954273.515   6810150.236
10 0 59509  68742.000000  0    -778691.094   -701189.960   6797231.330
10 0 59509  68862.000000  0   -1645301.877   -420544.791   6664869.212
10 0 59509  68982.000000  0   -2478095.629   -117689.785   6415374.114
10 0 59509  69102.000000  0   -3262193.527    201368.415   6053103.466
10 0 59509  69222.000000  0   -3983664.530    530085.631   5584391.420
10 0 59509  69342.000000  0   -4629777.409    861511.735   5017444.052
10 0 59509  69462.000000  0   -5189231.964   1188434.602   4362201.636
10 0 59509  69582.000000  0   -5652365.122   1503533.833   3630168.391
10 0 59509  69702.000000  0   -6011326.217   1799540.575   2834212.851
10 0 59509  69822.000000  0   -6260218.977   2069400.149   1988341.983
10 0 59509  69942.000000  0   -6395206.775   2306433.653   1107452.092
10 0 59509  70062.000000  0   -6414577.090   2504494.956    207059.866
10 0 59509  70182.000000  0   -6318762.288   2658117.784   -696979.329
10 0 59509  70302.000000  0   -6110317.273   2762649.514  -1588759.614
10 0 59509  70422.000000  0   -5793854.615   2814368.916  -2452612.907
10 0 59509  70542.000000  0   -5375937.801   2810584.474  -3273392.094
10 0 59509  70662.000000  0   -4864936.287   2749709.872  -4036740.450
10 0 59509  70782.000000  0   -4270847.853   2631316.361  -4729342.673
10 0 59509  70902.000000  0   -3605092.596   2456160.650  -5339152.716
10 0 59509  71022.000000  0   -2880285.136   2226188.912  -5855594.447
10 0 59509  71142.000000  0   -2109991.068   1944517.371  -6269735.264
10 0 59509  71262.000000  0   -1308469.487   1615389.059  -6574429.847
10 0 59509  71382.000000  0    -490409.976   1244108.508  -6764430.962
10 0 59509  71502.000000  0     329332.123    836955.962  -6836469.947
10 0 59509  71622.000000  0    1135998.043    401083.159  -6789307.286
10 0 59509  71742.000000  0    1915186.146    -55609.720  -6623753.279
10 0 59509  71862.000000  0    2653103.123   -524613.760  -6342654.506
10 0 59509  71982.000000  0    3336803.910   -996965.286  -5950850.858
10 0 59509  72102.000000  0    3954416.612  -1463412.142  -5455099.932
10 0 59509  72222.000000  0    4495349.998  -1914590.628  -4863972.624
10 0 59509  72342.000000  0    4950480.497  -2341211.327  -4187716.204
10 0 59509  72462.000000  0    5312313.346  -2734248.541  -3438087.054
10 0 59509  72582.000000  0    5575115.788  -3085130.026  -2628154.687
10 0 59509  72702.000000  0    5735018.156  -3385922.814  -1772078.173
10 0 59509  72822.000000  0    5790079.090  -3629510.438   -884859.737
10 0 59509  72942.000000  0    5740313.812  -3809757.870     17920.660
10 0 59509  73062.000000  0    5587683.005  -3921658.762    920384.642
10 0 59509  73182.000000  0    5336042.648  -3961462.445   1806643.018
10 0 59509  73302.000000  0    4991054.131  -3926774.405   2661085.757
10 0 59509  73422.000000  0    4560057.837  -3816628.429   3468664.600
10 0 59509  73542.000000  0    4051915.348  -3631529.781   4215164.177
10 0 59509  73662.000000  0    3476823.217  -3373468.908   4887456.912
10 0 59509  73782.000000  0    2846101.143  -3045903.673   5473735.282
10 0 59509  73902.000000  0    2171963.587  -2653711.457   5963717.079
10 0 59509  74022.000000  0    1467277.710  -2203113.270   6348821.589
10 0 59509  74142.000000  0     745314.016  -1701571.881   6622313.732
10 0 59509  74262.000000  0      19494.428  -1157665.354   6779415.842
10 0 59509  74382.000000  0    -696857.413   -580938.368   6817385.728
10 0 59509  74502.000000  0   -1390759.694     18265.835   6735560.862
10 0 59509  74622.000000  0   -2049806.730    628990.580   6535369.248
10 0 59509  74742.000000  0   -2662390.209   1239865.410   6220306.151
10 0 59509  74862.000000  0   -3217904.309   1839316.800   5795877.018
10 0 59509  74982.000000  0   -3706931.838   2415787.119   5269507.666
10 0 59509  75102.000000  0   -4121408.586   2957958.965   4650420.689
10 0 59509  75222.000000  0   -4454761.833   3454979.648   3949478.918
10 0 59509  75342.000000  0   -4702020.850   3896681.110   3178998.243
10 0 59509  75462.000000  0   -4859895.468   4273791.198   2352532.183
10 0 59509  75582.000000  0   -4926821.573   4578132.197   1484632.134
10 0 59509  75702.000000  0   -4902971.287   4802799.885    590585.570
10 0 59509  75822.000000  0   -4790228.125   4942317.252   -313860.226
10 0 59509  75942.000000  0   -4592128.505   4992761.883  -1212784.011
10 0 59509  76062.000000  0   -4313767.309   4951861.983  -2090381.603
10 0 59509  76182.000000  0   -3961672.472   4819057.707  -2931251.197
10 0 59509  76302.000000  0   -3543652.846   4595526.941  -3720669.809
10 0 59509  76422.000000  0   -3068621.916   4284175.549  -4444852.053
10 0 59509  76542.000000  0   -2546404.348   3889594.028  -5091187.062
10 0 59509  76662.000000  0   -1987530.875   3417983.585  -5648450.716
10 0 59509  76782.000000  0   -1403024.828   2877052.273  -6106992.418
10 0 59509  76902.000000  0    -804184.349   2275882.428  -6458891.886
10 0 59509  77022.000000  0    -202365.810   1624774.367  -6698083.824
10 0 59509  77142.000000  0     391227.326    935069.408  -6820451.837
10 0 59509  77262.000000  0     965747.652    218955.036  -6823892.337
10 0 59509  77382.000000  0    1510898.173   -510746.478  -6708347.205
10 0 59509  77502.000000  0    2017112.072  -1240802.478  -6475803.085
10 0 59509  77622.000000  0    2475716.825  -1957803.381  -6130261.158
10 0 59509  77742.000000  0    2879081.300  -2648402.802  -5677676.027
10 0 59509  77862.000000  0    3220743.980  -3299563.244  -5125865.372
10 0 59509  77982.000000  0    3495519.980  -3898803.443  -4484384.893
10 0 59509  78102.000000  0    3699582.044  -4434438.499  -3764372.275
10 0 59509  78222.000000  0    3830516.999  -4895811.226  -2978364.438
10 0 59509  78342.000000  0    3887356.496  -5273511.221  -2140086.747
10 0 59509  78462.000000  0    3870578.001  -5559574.741  -1264215.316
10 0 59509  78582.000000  0    3782076.728  -5747658.562   -366118.807
10 0 59509  78702.000000  0    3625108.197  -5833184.615    538416.575
10 0 59509  78822.000000  0    3404202.312  -5813450.287   1433471.540
10 0 59509  78942.000000  0    3125052.132  -5687701.733   2303283.686
10 0 59509  79062.000000  0    2794377.553  -5457165.724   3132534.269
99
